{
  "norad_id": 68456,
  "name": "TRANSPORTER-16 OBJECT AS",
  "history": [
    {
      "epoch": "2026-04-14T03:31:27.910848Z",
      "apogee_km": 518.0230461459887,
      "perigee_km": 512.733514001282,
      "latitude_deg": -3.493172532351458e-05,
      "longitude_deg": 168.35725313293918,
      "height_km": 517.3261861237663,
      "semi_major_axis_km": 6893.515280073635,
      "eccentricity": 0.00038366,
      "inclination_deg": 97.4499,
      "raan_deg": 63.551,
      "arg_perigee_deg": 295.5561,
      "mean_anomaly_deg": 64.5275,
      "mean_motion_rev_day": 15.1684655
    }
  ]
}