{"fetched_at":"2026-04-16T06:04:01Z","count":5425,"tles":[{"name":"TRANSPORTER-16 OBJECT AS","line1":"1 68456U 26067AS  26104.14685082  .00003585  00000+0  18563-3 0  9993","line2":"2 68456  97.4499  63.5510 0003836 295.5561  64.5275 15.16846550  2222","category":"Other"}]}